{
  "norad_id": 45726,
  "name": "ANDESITE",
  "history": [
    {
      "epoch": "2026-03-28T19:29:59.500608Z",
      "apogee_km": 557.8477955341805,
      "perigee_km": 543.6290502788352,
      "latitude_deg": 1.5097930529693856e-05,
      "longitude_deg": 161.3081120075665,
      "height_km": 552.9700743783139,
      "semi_major_axis_km": 6928.875422906508,
      "eccentricity": 0.00102605,
      "inclination_deg": 97.7888,
      "raan_deg": 280.0336,
      "arg_perigee_deg": 83.4984,
      "mean_anomaly_deg": 276.741,
      "mean_motion_rev_day": 15.05249988
    },
    {
      "epoch": "2026-03-29T01:52:53.486112Z",
      "apogee_km": 557.8347071624448,
      "perigee_km": 543.6263713864082,
      "latitude_deg": -4.12384817822094e-06,
      "longitude_deg": 65.58938941733675,
      "height_km": 552.8668461302453,
      "semi_major_axis_km": 6928.867539274426,
      "eccentricity": 0.0010253,
      "inclination_deg": 97.7889,
      "raan_deg": 280.3019,
      "arg_perigee_deg": 82.7186,
      "mean_anomaly_deg": 277.5205,
      "mean_motion_rev_day": 15.05252557
    },
    {
      "epoch": "2026-03-30T01:48:45.441216Z",
      "apogee_km": 557.8263917498671,
      "perigee_km": 543.5644987744863,
      "latitude_deg": 0.00010510932238029557,
      "longitude_deg": 66.64628021506802,
      "height_km": 552.4615939846194,
      "semi_major_axis_km": 6928.832445262176,
      "eccentricity": 0.00102917,
      "inclination_deg": 97.7888,
      "raan_deg": 281.3081,
      "arg_perigee_deg": 79.7362,
      "mean_anomaly_deg": 280.5025,
      "mean_motion_rev_day": 15.05263993
    },
    {
      "epoch": "2026-03-30T11:23:06.064800Z",
      "apogee_km": 557.8276898941358,
      "perigee_km": 543.5407377041311,
      "latitude_deg": -3.0073327739005038e-05,
      "longitude_deg": -76.93035684614757,
      "height_km": 552.3022057757566,
      "semi_major_axis_km": 6928.821213799133,
      "eccentricity": 0.00103098,
      "inclination_deg": 97.7887,
      "raan_deg": 281.7105,
      "arg_perigee_deg": 78.5438,
      "mean_anomaly_deg": 281.6945,
      "mean_motion_rev_day": 15.05267653
    }
  ]
}